{
  "type": "FeatureCollection",
  "features": [
    {
      "type": "Feature",
      "properties": {
        "norad_id": 66869,
        "name": "STARLINK-36092",
        "group": "last-30-days",
        "lat": 24.24293859415709,
        "lon": -136.8087219289205,
        "alt_km": 348.31955282036506,
        "timestamp": "2025-12-20T22:39:09.408267+00:00",
        "meta_object_name": "STARLINK-36092",
        "meta_object_id": "2025-281X",
        "meta_epoch": "2025-12-20T14:00:03.000384",
        "meta_mean_motion": 15.74144622,
        "meta_eccentricity": 0.00010639,
        "meta_inclination": 43.0007,
        "meta_ra_of_asc_node": 74.2712,
        "meta_arg_of_pericenter": 276.2122,
        "meta_mean_anomaly": 342.313,
        "meta_ephemeris_type": 0,
        "meta_classification_type": "U",
        "meta_norad_cat_id": 66869,
        "meta_element_set_no": 999,
        "meta_rev_at_epoch": 268,
        "meta_bstar": -0.014593241,
        "meta_mean_motion_dot": -0.01877318,
        "meta_mean_motion_ddot": 0,
        "tle_line1": "1 66869U 25281X   25354.58336806 -.01877318  00000+0 -14593-1 0  9990",
        "tle_line2": "2 66869  43.0007  74.2712 0001063 276.2122 342.3130 15.74144622  2684"
      },
      "geometry": {
        "type": "Point",
        "coordinates": [
          -136.8087219289205,
          24.24293859415709
        ]
      }
    },
    {
      "type": "Feature",
      "properties": {
        "norad_id": 66870,
        "name": "STARLINK-36114",
        "group": "last-30-days",
        "lat": 23.088436937955215,
        "lon": -135.1398462260221,
        "alt_km": 348.473493353461,
        "timestamp": "2025-12-20T22:39:09.408276+00:00",
        "meta_object_name": "STARLINK-36114",
        "meta_object_id": "2025-281Y",
        "meta_epoch": "2025-12-20T14:00:03.000384",
        "meta_mean_motion": 15.74144624,
        "meta_eccentricity": 0.0001048,
        "meta_inclination": 43.0008,
        "meta_ra_of_asc_node": 74.2662,
        "meta_arg_of_pericenter": 275.6239,
        "meta_mean_anomaly": 344.8201,
        "meta_ephemeris_type": 0,
        "meta_classification_type": "U",
        "meta_norad_cat_id": 66870,
        "meta_element_set_no": 999,
        "meta_rev_at_epoch": 255,
        "meta_bstar": -0.014607732,
        "meta_mean_motion_dot": -0.0187892,
        "meta_mean_motion_ddot": 0,
        "tle_line1": "1 66870U 25281Y   25354.58336806 -.01878920  00000+0 -14608-1 0  9999",
        "tle_line2": "2 66870  43.0008  74.2662 0001048 275.6239 344.8201 15.74144624  2550"
      },
      "geometry": {
        "type": "Point",
        "coordinates": [
          -135.1398462260221,
          23.088436937955215
        ]
      }
    },
    {
      "type": "Feature",
      "properties": {
        "norad_id": 66871,
        "name": "STARLINK-36095",
        "group": "last-30-days",
        "lat": 21.91725793864427,
        "lon": -133.50081683147556,
        "alt_km": 348.6061592584101,
        "timestamp": "2025-12-20T22:39:09.408285+00:00",
        "meta_object_name": "STARLINK-36095",
        "meta_object_id": "2025-281Z",
        "meta_epoch": "2025-12-20T14:00:03.000384",
        "meta_mean_motion": 15.74143049,
        "meta_eccentricity": 0.00010547,
        "meta_inclination": 43.0007,
        "meta_ra_of_asc_node": 74.2612,
        "meta_arg_of_pericenter": 273.3034,
        "meta_mean_anomaly": 349.0586,
        "meta_ephemeris_type": 0,
        "meta_classification_type": "U",
        "meta_norad_cat_id": 66871,
        "meta_element_set_no": 999,
        "meta_rev_at_epoch": 268,
        "meta_bstar": -0.014590109,
        "meta_mean_motion_dot": -0.01876849,
        "meta_mean_motion_ddot": 0,
        "tle_line1": "1 66871U 25281Z   25354.58336806 -.01876849  00000+0 -14590-1 0  9998",
        "tle_line2": "2 66871  43.0007  74.2612 0001054 273.3034 349.0586 15.74143049  2687"
      },
      "geometry": {
        "type": "Point",
        "coordinates": [
          -133.50081683147556,
          21.91725793864427
        ]
      }
    },
    {
      "type": "Feature",
      "properties": {
        "norad_id": 66872,
        "name": "STARLINK-36082",
        "group": "last-30-days",
        "lat": 20.730162708084308,
        "lon": -131.88889683594164,
        "alt_km": 348.83138153556956,
        "timestamp": "2025-12-20T22:39:09.408293+00:00",
        "meta_object_name": "STARLINK-36082",
        "meta_object_id": "2025-281AA",
        "meta_epoch": "2025-12-20T14:00:03.000384",
        "meta_mean_motion": 15.7414381,
        "meta_eccentricity": 0.0001111,
        "meta_inclination": 43.0007,
        "meta_ra_of_asc_node": 74.2562,
        "meta_arg_of_pericenter": 275.8947,
        "meta_mean_anomaly": 348.3825,
        "meta_ephemeris_type": 0,
        "meta_classification_type": "U",
        "meta_norad_cat_id": 66872,
        "meta_element_set_no": 999,
        "meta_rev_at_epoch": 255,
        "meta_bstar": -0.014585951,
        "meta_mean_motion_dot": -0.01876487,
        "meta_mean_motion_ddot": 0,
        "tle_line1": "1 66872U 25281AA  25354.58336806 -.01876487  00000+0 -14586-1 0  9992",
        "tle_line2": "2 66872  43.0007  74.2562 0001111 275.8947 348.3825 15.74143810  2556"
      },
      "geometry": {
        "type": "Point",
        "coordinates": [
          -131.88889683594164,
          20.730162708084308
        ]
      }
    },
    {
      "type": "Feature",
      "properties": {
        "norad_id": 66873,
        "name": "STARLINK-36128",
        "group": "last-30-days",
        "lat": 17.083742293607415,
        "lon": -127.19786812911738,
        "alt_km": 349.3577673629188,
        "timestamp": "2025-12-20T22:39:09.408303+00:00",
        "meta_object_name": "STARLINK-36128",
        "meta_object_id": "2025-281AB",
        "meta_epoch": "2025-12-20T14:00:03.000384",
        "meta_mean_motion": 15.74143127,
        "meta_eccentricity": 0.00011942,
        "meta_inclination": 43.0007,
        "meta_ra_of_asc_node": 74.2411,
        "meta_arg_of_pericenter": 275.6919,
        "meta_mean_anomaly": 354.3373,
        "meta_ephemeris_type": 0,
        "meta_classification_type": "U",
        "meta_norad_cat_id": 66873,
        "meta_element_set_no": 999,
        "meta_rev_at_epoch": 268,
        "meta_bstar": -0.014580514,
        "meta_mean_motion_dot": -0.01875903,
        "meta_mean_motion_ddot": 0,
        "tle_line1": "1 66873U 25281AB  25354.58336806 -.01875903  00000+0 -14581-1 0  9990",
        "tle_line2": "2 66873  43.0007  74.2411 0001194 275.6919 354.3373 15.74143127  2688"
      },
      "geometry": {
        "type": "Point",
        "coordinates": [
          -127.19786812911738,
          17.083742293607415
        ]
      }
    },
    {
      "type": "Feature",
      "properties": {
        "norad_id": 66874,
        "name": "STARLINK-36129",
        "group": "last-30-days",
        "lat": 19.528091609181246,
        "lon": -130.30175572236635,
        "alt_km": 348.9869389353271,
        "timestamp": "2025-12-20T22:39:09.408313+00:00",
        "meta_object_name": "STARLINK-36129",
        "meta_object_id": "2025-281AC",
        "meta_epoch": "2025-12-20T14:00:03.000384",
        "meta_mean_motion": 15.74146389,
        "meta_eccentricity": 0.00010905,
        "meta_inclination": 43.0007,
        "meta_ra_of_asc_node": 74.2516,
        "meta_arg_of_pericenter": 275.7385,
        "meta_mean_anomaly": 350.4536,
        "meta_ephemeris_type": 0,
        "meta_classification_type": "U",
        "meta_norad_cat_id": 66874,
        "meta_element_set_no": 999,
        "meta_rev_at_epoch": 268,
        "meta_bstar": -0.014610158,
        "meta_mean_motion_dot": -0.01879352,
        "meta_mean_motion_ddot": 0,
        "tle_line1": "1 66874U 25281AC  25354.58336806 -.01879352  00000+0 -14610-1 0  9996",
        "tle_line2": "2 66874  43.0007  74.2516 0001090 275.7385 350.4536 15.74146389  2689"
      },
      "geometry": {
        "type": "Point",
        "coordinates": [
          -130.30175572236635,
          19.528091609181246
        ]
      }
    },
    {
      "type": "Feature",
      "properties": {
        "norad_id": 66875,
        "name": "STARLINK-36053",
        "group": "last-30-days",
        "lat": 15.842798168548516,
        "lon": -125.67560980521198,
        "alt_km": 349.431663740761,
        "timestamp": "2025-12-20T22:39:09.408322+00:00",
        "meta_object_name": "STARLINK-36053",
        "meta_object_id": "2025-281AD",
        "meta_epoch": "2025-12-20T14:00:03.000384",
        "meta_mean_motion": 15.74141954,
        "meta_eccentricity": 0.00011136,
        "meta_inclination": 43.0007,
        "meta_ra_of_asc_node": 74.2364,
        "meta_arg_of_pericenter": 271.3726,
        "meta_mean_anomaly": 0.5787,
        "meta_ephemeris_type": 0,
        "meta_classification_type": "U",
        "meta_norad_cat_id": 66875,
        "meta_element_set_no": 999,
        "meta_rev_at_epoch": 268,
        "meta_bstar": -0.014614934,
        "meta_mean_motion_dot": -0.01879587,
        "meta_mean_motion_ddot": 0,
        "tle_line1": "1 66875U 25281AD  25354.58336806 -.01879587  00000+0 -14615-1 0  9992",
        "tle_line2": "2 66875  43.0007  74.2364 0001113 271.3726   0.5787 15.74141954  2682"
      },
      "geometry": {
        "type": "Point",
        "coordinates": [
          -125.67560980521198,
          15.842798168548516
        ]
      }
    }
  ]
}